{
  "norad_id": 67430,
  "name": "STARLINK-36515",
  "history": [
    {
      "epoch": "2026-03-28T20:10:40.116576Z",
      "apogee_km": 483.95776953539826,
      "perigee_km": 481.96462050974424,
      "latitude_deg": 4.4036134302862996e-05,
      "longitude_deg": 1.0523854386587954,
      "height_km": 482.8549187481411,
      "semi_major_axis_km": 6861.0981950225705,
      "eccentricity": 0.00014525,
      "inclination_deg": 43.0016,
      "raan_deg": 129.9749,
      "arg_perigee_deg": 263.2675,
      "mean_anomaly_deg": 96.8012,
      "mean_motion_rev_day": 15.27609356
    }
  ]
}