{"fetched_at":"2026-03-30T06:02:59Z","count":15439,"tles":[{"name":"STARLINK-36515","line1":"1 67430U 26005AC  26087.84074209  .00036656  00000+0  13338-2 0  9995","line2":"2 67430  43.0016 129.9749 0001452 263.2675  96.8012 15.27609356 11619","category":"Starlink"}]}